YAOGAN-43 01G           
1 60464U 24148G   26068.44348481  .00010133  00000+0  35873-3 0  9993
2 60464  35.0006  62.0013 0007382 306.3543  53.6492 15.28332833 87004
STARLINK-32632          
1 62262U 24231V   26068.73335814  .00036103  00000+0  12253-2 0  9993
2 62262  53.1599 219.5259 0001051  72.7830 287.3285 15.30197486 71770
