[{"OBJECT_NAME":"YAOGAN-43 01G","OBJECT_ID":"2024-148G","EPOCH":"2026-03-09T10:38:37.087584","MEAN_MOTION":15.28332833,"ECCENTRICITY":0.00073829,"INCLINATION":35.0006,"RA_OF_ASC_NODE":62.0013,"ARG_OF_PERICENTER":306.3543,"MEAN_ANOMALY":53.6492,"EPHEMERIS_TYPE":0,"CLASSIFICATION_TYPE":"U","NORAD_CAT_ID":60464,"ELEMENT_SET_NO":999,"REV_AT_EPOCH":8700,"BSTAR":0.00035872736,"MEAN_MOTION_DOT":0.00010133,"MEAN_MOTION_DDOT":0},{"OBJECT_NAME":"STARLINK-32632","OBJECT_ID":"2024-231V","EPOCH":"2026-03-09T17:36:02.143296","MEAN_MOTION":15.30197486,"ECCENTRICITY":0.00010508,"INCLINATION":53.1599,"RA_OF_ASC_NODE":219.5259,"ARG_OF_PERICENTER":72.783,"MEAN_ANOMALY":287.3285,"EPHEMERIS_TYPE":0,"CLASSIFICATION_TYPE":"U","NORAD_CAT_ID":62262,"ELEMENT_SET_NO":999,"REV_AT_EPOCH":7177,"BSTAR":0.0012252564,"MEAN_MOTION_DOT":0.00036103,"MEAN_MOTION_DDOT":0}]
